start=new Date('2023-06-26T00:00:00.000Z').valueOf();
sats=[{"TLE_LINE1":"1 52101U 22029P   23176.35397130  .00000568  00000-0  53779-4 0  9998","NORAD_CAT_ID":"52101","GP_ID":"234542386","SEMIMAJOR_AXIS":"6917.862","TIME_SYSTEM":"UTC","OBJECT_ID":"2022-029P","FILE":"3942359","MEAN_ANOMALY":"277.8811","ARG_OF_PERICENTER":"82.2304","DECAY_DATE":null,"PERIAPSIS":"538.978","LAUNCH_DATE":"2022-03-19","RA_OF_ASC_NODE":"205.9437","ELEMENT_SET_NO":"999","MEAN_MOTION_DDOT":"0.0000000000000","RCS_SIZE":"LARGE","CLASSIFICATION_TYPE":"U","INCLINATION":"53.2167","BSTAR":"0.00005377900000","REV_AT_EPOCH":"7144","OBJECT_NAME":"STARLINK-3703","MEAN_ELEMENT_THEORY":"SGP4","EPOCH":"2023-06-25T08:29:43.120320","OBJECT_TYPE":"PAYLOAD","TLE_LINE2":"2 52101  53.2167 205.9437 0001082  82.2304 277.8811 15.08846027 71446","APOAPSIS":"540.475","CENTER_NAME":"EARTH","PERIOD":"95.437","MEAN_MOTION_DOT":"0.00000568","REF_FRAME":"TEME","ECCENTRICITY":"0.00010820","SITE":"AFETR","COUNTRY_CODE":"US","EPHEMERIS_TYPE":"0","MEAN_MOTION":"15.08846027"},{"TIME_SYSTEM":"UTC","SEMIMAJOR_AXIS":"6917.886","FILE":"3942080","OBJECT_ID":"2022-029Q","TLE_LINE1":"1 52102U 22029Q   23176.09729509  .00000313  00000-0  37735-4 0  9991","GP_ID":"234535754","NORAD_CAT_ID":"52102","RA_OF_ASC_NODE":"197.0839","MEAN_MOTION_DDOT":"0.0000000000000","ELEMENT_SET_NO":"999","MEAN_ANOMALY":"275.5318","LAUNCH_DATE":"2022-03-19","ARG_OF_PERICENTER":"84.5785","PERIAPSIS":"539.079","DECAY_DATE":null,"INCLINATION":"53.2151","BSTAR":"0.00003773500000","REV_AT_EPOCH":"7154","OBJECT_NAME":"STARLINK-3709","RCS_SIZE":"LARGE","CLASSIFICATION_TYPE":"U","PERIOD":"95.438","MEAN_MOTION_DOT":"0.00000313","REF_FRAME":"TEME","CENTER_NAME":"EARTH","EPHEMERIS_TYPE":"0","MEAN_MOTION":"15.08838090","ECCENTRICITY":"0.00009720","SITE":"AFETR","COUNTRY_CODE":"US","MEAN_ELEMENT_THEORY":"SGP4","EPOCH":"2023-06-25T02:20:06.295776","APOAPSIS":"540.424","TLE_LINE2":"2 52102  53.2151 197.0839 0000972  84.5785 275.5318 15.08838090 71541","OBJECT_TYPE":"PAYLOAD"},{"RA_OF_ASC_NODE":"196.0153","ELEMENT_SET_NO":"999","MEAN_MOTION_DDOT":"0.0000000000000","MEAN_ANOMALY":"271.8009","PERIAPSIS":"539.066","DECAY_DATE":null,"ARG_OF_PERICENTER":"88.3096","LAUNCH_DATE":"2022-03-19","SEMIMAJOR_AXIS":"6917.881","TIME_SYSTEM":"UTC","OBJECT_ID":"2022-029R","FILE":"3942350","TLE_LINE1":"1 52103U 22029R   23176.33553479  .00000625  00000-0  57339-4 0  9998","GP_ID":"234542412","NORAD_CAT_ID":"52103","CENTER_NAME":"EARTH","MEAN_MOTION_DOT":"0.00000625","REF_FRAME":"TEME","PERIOD":"95.438","COUNTRY_CODE":"US","ECCENTRICITY":"0.00009840","SITE":"AFETR","MEAN_MOTION":"15.08839683","EPHEMERIS_TYPE":"0","EPOCH":"2023-06-25T08:03:10.205856","MEAN_ELEMENT_THEORY":"SGP4","TLE_LINE2":"2 52103  53.2149 196.0153 0000984  88.3096 271.8009 15.08839683 71575","OBJECT_TYPE":"PAYLOAD","APOAPSIS":"540.427","INCLINATION":"53.2149","BSTAR":"0.00005733900000","OBJECT_NAME":"STARLINK-3705","REV_AT_EPOCH":"7157","RCS_SIZE":"LARGE","CLASSIFICATION_TYPE":"U"},{"PERIOD":"95.437","MEAN_MOTION_DOT":"0.00001419","REF_FRAME":"TEME","CENTER_NAME":"EARTH","EPHEMERIS_TYPE":"0","MEAN_MOTION":"15.08845356","SITE":"AFETR","ECCENTRICITY":"0.00009580","COUNTRY_CODE":"US","MEAN_ELEMENT_THEORY":"SGP4","EPOCH":"2023-06-25T07:53:56.807808","APOAPSIS":"540.392","TLE_LINE2":"2 52105  53.2156 196.0457 0000958  83.1265 276.9836 15.08845356 71572","OBJECT_TYPE":"PAYLOAD","BSTAR":"0.00010718000000","INCLINATION":"53.2156","REV_AT_EPOCH":"7157","OBJECT_NAME":"STARLINK-3706","RCS_SIZE":"LARGE","CLASSIFICATION_TYPE":"U","RA_OF_ASC_NODE":"196.0457","MEAN_MOTION_DDOT":"0.0000000000000","ELEMENT_SET_NO":"999","MEAN_ANOMALY":"276.9836","LAUNCH_DATE":"2022-03-19","ARG_OF_PERICENTER":"83.1265","PERIAPSIS":"539.066","DECAY_DATE":null,"TIME_SYSTEM":"UTC","SEMIMAJOR_AXIS":"6917.864","FILE":"3942503","OBJECT_ID":"2022-029T","TLE_LINE1":"1 52105U 22029T   23176.32912972  .00001419  00000-0  10718-3 0  9997","NORAD_CAT_ID":"52105","GP_ID":"234545908"},{"OBJECT_ID":"2022-029U","FILE":"3942082","SEMIMAJOR_AXIS":"6917.876","TIME_SYSTEM":"UTC","NORAD_CAT_ID":"52106","GP_ID":"234536297","TLE_LINE1":"1 52106U 22029U   23176.08437763  .00001095  00000-0  86897-4 0  9993","ELEMENT_SET_NO":"999","MEAN_MOTION_DDOT":"0.0000000000000","RA_OF_ASC_NODE":"207.1425","ARG_OF_PERICENTER":"83.5649","PERIAPSIS":"538.949","DECAY_DATE":null,"LAUNCH_DATE":"2022-03-19","MEAN_ANOMALY":"276.5473","REV_AT_EPOCH":"7140","OBJECT_NAME":"STARLINK-3670","INCLINATION":"53.2158","BSTAR":"0.00008689700000","CLASSIFICATION_TYPE":"U","RCS_SIZE":"LARGE","ECCENTRICITY":"0.00011450","SITE":"AFETR","COUNTRY_CODE":"US","EPHEMERIS_TYPE":"0","MEAN_MOTION":"15.08841284","CENTER_NAME":"EARTH","PERIOD":"95.437","MEAN_MOTION_DOT":"0.00001095","REF_FRAME":"TEME","TLE_LINE2":"2 52106  53.2158 207.1425 0001145  83.5649 276.5473 15.08841284 71404","OBJECT_TYPE":"PAYLOAD","APOAPSIS":"540.534","MEAN_ELEMENT_THEORY":"SGP4","EPOCH":"2023-06-25T02:01:30.227232"},{"APOAPSIS":"540.440","TLE_LINE2":"2 52107  53.2154 196.0632 0001020  91.9602 268.1506 15.08843525 71573","OBJECT_TYPE":"PAYLOAD","MEAN_ELEMENT_THEORY":"SGP4","EPOCH":"2023-06-25T07:47:16.191744","EPHEMERIS_TYPE":"0","MEAN_MOTION":"15.08843525","SITE":"AFETR","ECCENTRICITY":"0.00010200","COUNTRY_CODE":"US","PERIOD":"95.437","REF_FRAME":"TEME","MEAN_MOTION_DOT":"0.00001049","CENTER_NAME":"EARTH","CLASSIFICATION_TYPE":"U","RCS_SIZE":"LARGE","REV_AT_EPOCH":"7157","OBJECT_NAME":"STARLINK-3658","INCLINATION":"53.2154","BSTAR":"0.00008396900000","LAUNCH_DATE":"2022-03-19","ARG_OF_PERICENTER":"91.9602","DECAY_DATE":null,"PERIAPSIS":"539.029","MEAN_ANOMALY":"268.1506","MEAN_MOTION_DDOT":"0.0000000000000","ELEMENT_SET_NO":"999","RA_OF_ASC_NODE":"196.0632","NORAD_CAT_ID":"52107","GP_ID":"234542429","TLE_LINE1":"1 52107U 22029V   23176.32449296  .00001049  00000-0  83969-4 0  9991","FILE":"3942351","OBJECT_ID":"2022-029V","TIME_SYSTEM":"UTC","SEMIMAJOR_AXIS":"6917.870"},{"RA_OF_ASC_NODE":"196.0305","MEAN_MOTION_DDOT":"0.0000000000000","ELEMENT_SET_NO":"999","MEAN_ANOMALY":"269.2807","LAUNCH_DATE":"2022-03-19","PERIAPSIS":"538.864","DECAY_DATE":null,"ARG_OF_PERICENTER":"90.8329","TIME_SYSTEM":"UTC","SEMIMAJOR_AXIS":"6917.871","FILE":"3942498","OBJECT_ID":"2022-029W","TLE_LINE1":"1 52108U 22029W   23176.33185346  .00000493  00000-0  49033-4 0  9992","NORAD_CAT_ID":"52108","GP_ID":"234545834","MEAN_MOTION_DOT":"0.00000493","REF_FRAME":"TEME","PERIOD":"95.437","CENTER_NAME":"EARTH","MEAN_MOTION":"15.08842932","EPHEMERIS_TYPE":"0","COUNTRY_CODE":"US","ECCENTRICITY":"0.00012610","SITE":"AFETR","EPOCH":"2023-06-25T07:57:52.138944","MEAN_ELEMENT_THEORY":"SGP4","APOAPSIS":"540.609","TLE_LINE2":"2 52108  53.2156 196.0305 0001261  90.8329 269.2807 15.08842932 71571","OBJECT_TYPE":"PAYLOAD","INCLINATION":"53.2156","BSTAR":"0.00004903300000","OBJECT_NAME":"STARLINK-3698","REV_AT_EPOCH":"7157","RCS_SIZE":"LARGE","CLASSIFICATION_TYPE":"U"},{"OBJECT_NAME":"STARLINK-3687","REV_AT_EPOCH":"7157","INCLINATION":"53.2155","BSTAR":"0.00004244800000","CLASSIFICATION_TYPE":"U","RCS_SIZE":"LARGE","MEAN_MOTION":"15.08842402","EPHEMERIS_TYPE":"0","COUNTRY_CODE":"US","ECCENTRICITY":"0.00010230","SITE":"AFETR","REF_FRAME":"TEME","MEAN_MOTION_DOT":"0.00000388","PERIOD":"95.437","CENTER_NAME":"EARTH","APOAPSIS":"540.446","TLE_LINE2":"2 52110  53.2155 196.0495 0001023  90.5347 269.5762 15.08842402 71571","OBJECT_TYPE":"PAYLOAD","EPOCH":"2023-06-25T07:52:34.241376","MEAN_ELEMENT_THEORY":"SGP4","FILE":"3942352","OBJECT_ID":"2022-029Y","TIME_SYSTEM":"UTC","SEMIMAJOR_AXIS":"6917.873","NORAD_CAT_ID":"52110","GP_ID":"234542437","TLE_LINE1":"1 52110U 22029Y   23176.32817409  .00000388  00000-0  42448-4 0  9992","MEAN_MOTION_DDOT":"0.0000000000000","ELEMENT_SET_NO":"999","RA_OF_ASC_NODE":"196.0495","LAUNCH_DATE":"2022-03-19","DECAY_DATE":null,"PERIAPSIS":"539.030","ARG_OF_PERICENTER":"90.5347","MEAN_ANOMALY":"269.5762"},{"TLE_LINE1":"1 52111U 22029Z   23176.04848788 -.00004927  00000-0 -29171-3 0  9998","GP_ID":"234535488","NORAD_CAT_ID":"52111","TIME_SYSTEM":"UTC","SEMIMAJOR_AXIS":"6917.890","FILE":"3942070","OBJECT_ID":"2022-029Z","MEAN_ANOMALY":"277.6156","LAUNCH_DATE":"2022-03-19","DECAY_DATE":null,"PERIAPSIS":"538.852","ARG_OF_PERICENTER":"82.4985","RA_OF_ASC_NODE":"197.2996","MEAN_MOTION_DDOT":"0.0000000000000","ELEMENT_SET_NO":"999","RCS_SIZE":"LARGE","CLASSIFICATION_TYPE":"U","BSTAR":"-0.00029171000000","INCLINATION":"53.2144","OBJECT_NAME":"STARLINK-3708","REV_AT_EPOCH":"7153","EPOCH":"2023-06-25T01:09:49.352832","MEAN_ELEMENT_THEORY":"SGP4","APOAPSIS":"540.659","OBJECT_TYPE":"PAYLOAD","TLE_LINE2":"2 52111  53.2144 197.2996 0001306  82.4985 277.6156 15.08836743 71535","REF_FRAME":"TEME","MEAN_MOTION_DOT":"-0.00004927","PERIOD":"95.438","CENTER_NAME":"EARTH","MEAN_MOTION":"15.08836743","EPHEMERIS_TYPE":"0","COUNTRY_CODE":"US","SITE":"AFETR","ECCENTRICITY":"0.00013060"},{"TLE_LINE1":"1 52112U 22029AA  23176.05585638  .00001232  00000-0  95461-4 0  9992","NORAD_CAT_ID":"52112","GP_ID":"234535482","TIME_SYSTEM":"UTC","SEMIMAJOR_AXIS":"6917.878","FILE":"3942070","OBJECT_ID":"2022-029AA","MEAN_ANOMALY":"274.9832","LAUNCH_DATE":"2022-03-19","PERIAPSIS":"538.988","DECAY_DATE":null,"ARG_OF_PERICENTER":"85.1285","RA_OF_ASC_NODE":"197.2700","MEAN_MOTION_DDOT":"0.0000000000000","ELEMENT_SET_NO":"999","RCS_SIZE":"LARGE","CLASSIFICATION_TYPE":"U","INCLINATION":"53.2158","BSTAR":"0.00009546100000","OBJECT_NAME":"STARLINK-3734","REV_AT_EPOCH":"7153","EPOCH":"2023-06-25T01:20:25.991232","MEAN_ELEMENT_THEORY":"SGP4","APOAPSIS":"540.499","TLE_LINE2":"2 52112  53.2158 197.2700 0001092  85.1285 274.9832 15.08840718 71537","OBJECT_TYPE":"PAYLOAD","MEAN_MOTION_DOT":"0.00001232","REF_FRAME":"TEME","PERIOD":"95.438","CENTER_NAME":"EARTH","MEAN_MOTION":"15.08840718","EPHEMERIS_TYPE":"0","COUNTRY_CODE":"US","SITE":"AFETR","ECCENTRICITY":"0.00010920"}];
